[{"OBJECT_NAME":"STARLINK-3389","OBJECT_ID":"2022-005W","EPOCH":"2026-03-09T21:26:09.889728","MEAN_MOTION":15.08838248,"ECCENTRICITY":0.00011777,"INCLINATION":53.2175,"RA_OF_ASC_NODE":298.2095,"ARG_OF_PERICENTER":88.651,"MEAN_ANOMALY":271.4617,"EPHEMERIS_TYPE":0,"CLASSIFICATION_TYPE":"U","NORAD_CAT_ID":51124,"ELEMENT_SET_NO":999,"REV_AT_EPOCH":22877,"BSTAR":-7.39665e-7,"MEAN_MOTION_DOT":-3.0e-6,"MEAN_MOTION_DDOT":0},{"OBJECT_NAME":"COSMOS 397 DEB","OBJECT_ID":"1971-015N","EPOCH":"2026-03-09T21:59:22.745472","MEAN_MOTION":14.31890042,"ECCENTRICITY":0.0375916,"INCLINATION":65.6812,"RA_OF_ASC_NODE":51.6354,"ARG_OF_PERICENTER":68.3492,"MEAN_ANOMALY":295.7191,"EPHEMERIS_TYPE":0,"CLASSIFICATION_TYPE":"U","NORAD_CAT_ID":5019,"ELEMENT_SET_NO":999,"REV_AT_EPOCH":69800,"BSTAR":0.0019195844,"MEAN_MOTION_DOT":0.0001123,"MEAN_MOTION_DDOT":0}]
